[{"OBJECT_NAME":"ALOS (DAICHI)","OBJECT_ID":"2006-002A","EPOCH":"2026-04-02T07:54:06.279840","MEAN_MOTION":14.69885671,"ECCENTRICITY":0.00010129,"INCLINATION":98.1256,"RA_OF_ASC_NODE":48.1732,"ARG_OF_PERICENTER":113.1286,"MEAN_ANOMALY":247.0026,"EPHEMERIS_TYPE":0,"CLASSIFICATION_TYPE":"U","NORAD_CAT_ID":28931,"ELEMENT_SET_NO":999,"REV_AT_EPOCH":7695,"BSTAR":0.00034334437,"MEAN_MOTION_DOT":2.004e-5,"MEAN_MOTION_DDOT":0},{"OBJECT_NAME":"H-2A R/B","OBJECT_ID":"2006-002B","EPOCH":"2026-04-02T07:03:39.749184","MEAN_MOTION":15.16968926,"ECCENTRICITY":0.00524752,"INCLINATION":98.2455,"RA_OF_ASC_NODE":241.3635,"ARG_OF_PERICENTER":160.549,"MEAN_ANOMALY":199.776,"EPHEMERIS_TYPE":0,"CLASSIFICATION_TYPE":"U","NORAD_CAT_ID":28932,"ELEMENT_SET_NO":999,"REV_AT_EPOCH":9801,"BSTAR":0.00080725502,"MEAN_MOTION_DOT":0.00016456,"MEAN_MOTION_DDOT":0},{"OBJECT_NAME":"RESURS-DK 1","OBJECT_ID":"2006-021A","EPOCH":"2026-04-02T08:07:58.330848","MEAN_MOTION":15.12891447,"ECCENTRICITY":0.00017416,"INCLINATION":69.9335,"RA_OF_ASC_NODE":175.8472,"ARG_OF_PERICENTER":40.288,"MEAN_ANOMALY":319.8415,"EPHEMERIS_TYPE":0,"CLASSIFICATION_TYPE":"U","NORAD_CAT_ID":29228,"ELEMENT_SET_NO":999,"REV_AT_EPOCH":9110,"BSTAR":0.00018596973,"MEAN_MOTION_DOT":3.174e-5,"MEAN_MOTION_DDOT":0},{"OBJECT_NAME":"CZ-4B R/B","OBJECT_ID":"2006-046C","EPOCH":"2026-04-02T02:11:21.444288","MEAN_MOTION":15.17145047,"ECCENTRICITY":0.00331086,"INCLINATION":97.5541,"RA_OF_ASC_NODE":136.9348,"ARG_OF_PERICENTER":183.6411,"MEAN_ANOMALY":176.4587,"EPHEMERIS_TYPE":0,"CLASSIFICATION_TYPE":"U","NORAD_CAT_ID":29507,"ELEMENT_SET_NO":999,"REV_AT_EPOCH":6359,"BSTAR":0.00025190906,"MEAN_MOTION_DOT":4.998e-5,"MEAN_MOTION_DDOT":0},{"OBJECT_NAME":"CZ-2C R/B","OBJECT_ID":"2007-010B","EPOCH":"2026-04-02T07:50:29.283648","MEAN_MOTION":14.20255245,"ECCENTRICITY":0.00582373,"INCLINATION":98.4003,"RA_OF_ASC_NODE":204.4236,"ARG_OF_PERICENTER":224.6219,"MEAN_ANOMALY":135.0263,"EPHEMERIS_TYPE":0,"CLASSIFICATION_TYPE":"U","NORAD_CAT_ID":31114,"ELEMENT_SET_NO":999,"REV_AT_EPOCH":98307,"BSTAR":0.00011630833,"MEAN_MOTION_DOT":2.11e-6,"MEAN_MOTION_DDOT":0},{"OBJECT_NAME":"COSMO-SKYMED 1","OBJECT_ID":"2007-023A","EPOCH":"2026-04-02T07:58:34.572576","MEAN_MOTION":14.96712355,"ECCENTRICITY":0.00013667,"INCLINATION":97.8867,"RA_OF_ASC_NODE":283.5576,"ARG_OF_PERICENTER":102.1506,"MEAN_ANOMALY":257.9868,"EPHEMERIS_TYPE":0,"CLASSIFICATION_TYPE":"U","NORAD_CAT_ID":31598,"ELEMENT_SET_NO":999,"REV_AT_EPOCH":1844,"BSTAR":0.00046322495,"MEAN_MOTION_DOT":5.233e-5,"MEAN_MOTION_DDOT":0},{"OBJECT_NAME":"COSMOS 2428","OBJECT_ID":"2007-029A","EPOCH":"2026-04-02T07:43:26.248512","MEAN_MOTION":14.1294869,"ECCENTRICITY":0.00097201,"INCLINATION":70.9426,"RA_OF_ASC_NODE":153.7444,"ARG_OF_PERICENTER":252.5924,"MEAN_ANOMALY":107.4135,"EPHEMERIS_TYPE":0,"CLASSIFICATION_TYPE":"U","NORAD_CAT_ID":31792,"ELEMENT_SET_NO":999,"REV_AT_EPOCH":96743,"BSTAR":1.9028764e-5,"MEAN_MOTION_DOT":-1.2e-7,"MEAN_MOTION_DDOT":0},{"OBJECT_NAME":"SL-16 R/B","OBJECT_ID":"2007-029B","EPOCH":"2026-04-02T07:45:04.686624","MEAN_MOTION":14.14843803,"ECCENTRICITY":0.00028702,"INCLINATION":70.9743,"RA_OF_ASC_NODE":122.7073,"ARG_OF_PERICENTER":277.4129,"MEAN_ANOMALY":163.8055,"EPHEMERIS_TYPE":0,"CLASSIFICATION_TYPE":"U","NORAD_CAT_ID":31793,"ELEMENT_SET_NO":999,"REV_AT_EPOCH":96871,"BSTAR":-1.3546063e-5,"MEAN_MOTION_DOT":-7.4e-7,"MEAN_MOTION_DDOT":0},{"OBJECT_NAME":"KORONAS-FOTON","OBJECT_ID":"2009-003A","EPOCH":"2026-04-02T03:59:04.573824","MEAN_MOTION":15.4397808,"ECCENTRICITY":0.00115523,"INCLINATION":82.428,"RA_OF_ASC_NODE":251.4556,"ARG_OF_PERICENTER":73.3314,"MEAN_ANOMALY":286.9201,"EPHEMERIS_TYPE":0,"CLASSIFICATION_TYPE":"U","NORAD_CAT_ID":33504,"ELEMENT_SET_NO":999,"REV_AT_EPOCH":94936,"BSTAR":0.00039451083,"MEAN_MOTION_DOT":0.00018058,"MEAN_MOTION_DDOT":0},{"OBJECT_NAME":"CZ-2C R/B","OBJECT_ID":"2011-030B","EPOCH":"2026-04-02T02:38:58.096032","MEAN_MOTION":14.81304461,"ECCENTRICITY":0.00509636,"INCLINATION":97.8584,"RA_OF_ASC_NODE":48.9122,"ARG_OF_PERICENTER":274.4004,"MEAN_ANOMALY":97.0614,"EPHEMERIS_TYPE":0,"CLASSIFICATION_TYPE":"U","NORAD_CAT_ID":37731,"ELEMENT_SET_NO":999,"REV_AT_EPOCH":79356,"BSTAR":0.00022013889,"MEAN_MOTION_DOT":1.701e-5,"MEAN_MOTION_DDOT":0},{"OBJECT_NAME":"H-2A R/B","OBJECT_ID":"2012-025E","EPOCH":"2026-04-02T06:49:05.172960","MEAN_MOTION":14.95335688,"ECCENTRICITY":0.00430353,"INCLINATION":98.4772,"RA_OF_ASC_NODE":61.2282,"ARG_OF_PERICENTER":234.7131,"MEAN_ANOMALY":125.0059,"EPHEMERIS_TYPE":0,"CLASSIFICATION_TYPE":"U","NORAD_CAT_ID":38341,"ELEMENT_SET_NO":999,"REV_AT_EPOCH":75174,"BSTAR":0.00030919848,"MEAN_MOTION_DOT":3.403e-5,"MEAN_MOTION_DDOT":0},{"OBJECT_NAME":"SHIJIAN-16 (SJ-16)","OBJECT_ID":"2013-057A","EPOCH":"2026-04-02T07:01:55.106688","MEAN_MOTION":14.92433963,"ECCENTRICITY":0.00153204,"INCLINATION":74.9718,"RA_OF_ASC_NODE":140.4059,"ARG_OF_PERICENTER":51.3769,"MEAN_ANOMALY":308.8788,"EPHEMERIS_TYPE":0,"CLASSIFICATION_TYPE":"U","NORAD_CAT_ID":39358,"ELEMENT_SET_NO":999,"REV_AT_EPOCH":67502,"BSTAR":0.00014308374,"MEAN_MOTION_DOT":1.44e-5,"MEAN_MOTION_DDOT":0},{"OBJECT_NAME":"SL-4 R/B","OBJECT_ID":"2014-021B","EPOCH":"2026-04-02T04:35:10.912992","MEAN_MOTION":15.40039806,"ECCENTRICITY":0.00947895,"INCLINATION":51.6058,"RA_OF_ASC_NODE":222.5563,"ARG_OF_PERICENTER":188.667,"MEAN_ANOMALY":171.2682,"EPHEMERIS_TYPE":0,"CLASSIFICATION_TYPE":"U","NORAD_CAT_ID":39679,"ELEMENT_SET_NO":999,"REV_AT_EPOCH":65989,"BSTAR":0.00049968077,"MEAN_MOTION_DOT":0.00023412,"MEAN_MOTION_DDOT":0},{"OBJECT_NAME":"ALOS-2","OBJECT_ID":"2014-029A","EPOCH":"2026-04-02T01:15:00.956160","MEAN_MOTION":14.79465602,"ECCENTRICITY":0.00019738,"INCLINATION":97.9196,"RA_OF_ASC_NODE":190.3096,"ARG_OF_PERICENTER":99.9401,"MEAN_ANOMALY":260.2034,"EPHEMERIS_TYPE":0,"CLASSIFICATION_TYPE":"U","NORAD_CAT_ID":39766,"ELEMENT_SET_NO":999,"REV_AT_EPOCH":64032,"BSTAR":0.00025604263,"MEAN_MOTION_DOT":1.861e-5,"MEAN_MOTION_DDOT":0},{"OBJECT_NAME":"YAOGAN-29","OBJECT_ID":"2015-069A","EPOCH":"2026-04-02T08:12:33.533856","MEAN_MOTION":14.83019841,"ECCENTRICITY":1.107e-5,"INCLINATION":98.0107,"RA_OF_ASC_NODE":120.8316,"ARG_OF_PERICENTER":342.5631,"MEAN_ANOMALY":17.5579,"EPHEMERIS_TYPE":0,"CLASSIFICATION_TYPE":"U","NORAD_CAT_ID":41038,"ELEMENT_SET_NO":999,"REV_AT_EPOCH":55938,"BSTAR":1.4776057e-5,"MEAN_MOTION_DOT":6.6e-7,"MEAN_MOTION_DDOT":0},{"OBJECT_NAME":"ASTRO-H (HITOMI)","OBJECT_ID":"2016-012A","EPOCH":"2026-04-01T15:16:50.803968","MEAN_MOTION":15.10152335,"ECCENTRICITY":0.00096599,"INCLINATION":30.9992,"RA_OF_ASC_NODE":208.4476,"ARG_OF_PERICENTER":202.6657,"MEAN_ANOMALY":157.3555,"EPHEMERIS_TYPE":0,"CLASSIFICATION_TYPE":"U","NORAD_CAT_ID":41337,"ELEMENT_SET_NO":999,"REV_AT_EPOCH":55570,"BSTAR":0.00020867814,"MEAN_MOTION_DOT":3.587e-5,"MEAN_MOTION_DDOT":0}]
