ALOS (DAICHI)           
1 28931U 06002A   26092.32923935  .00002004  00000+0  34334-3 0  9991
2 28931  98.1256  48.1732 0001012 113.1286 247.0026 14.69885671 76950
H-2A R/B                
1 28932U 06002B   26092.29421006  .00016456  00000+0  80726-3 0  9992
2 28932  98.2455 241.3635 0052475 160.5490 199.7760 15.16968926 98011
RESURS-DK 1             
1 29228U 06021A   26092.33886957  .00003174  00000+0  18597-3 0  9997
2 29228  69.9335 175.8472 0001741  40.2880 319.8415 15.12891447 91103
CZ-4B R/B               
1 29507U 06046C   26092.09122042  .00004998  00000+0  25191-3 0  9998
2 29507  97.5541 136.9348 0033108 183.6411 176.4587 15.17145047 63595
CZ-2C R/B               
1 31114U 07010B   26092.32672782  .00000211  00000+0  11631-3 0  9992
2 31114  98.4003 204.4236 0058237 224.6219 135.0263 14.20255245983075
COSMO-SKYMED 1          
1 31598U 07023A   26092.33234459  .00005233  00000+0  46322-3 0  9992
2 31598  97.8867 283.5576 0001366 102.1506 257.9868 14.96712355 18445
COSMOS 2428             
1 31792U 07029A   26092.32183158 -.00000012  00000+0  19029-4 0  9998
2 31792  70.9426 153.7444 0009720 252.5924 107.4135 14.12948690967431
SL-16 R/B               
1 31793U 07029B   26092.32297091 -.00000074  00000+0 -13546-4 0  9998
2 31793  70.9743 122.7073 0002870 277.4129 163.8055 14.14843803968711
KORONAS-FOTON           
1 33504U 09003A   26092.16602516  .00018058  00000+0  39451-3 0  9999
2 33504  82.4280 251.4556 0011552  73.3314 286.9201 15.43978080949368
CZ-2C R/B               
1 37731U 11030B   26092.11039463  .00001701  00000+0  22014-3 0  9992
2 37731  97.8584  48.9122 0050963 274.4004  97.0614 14.81304461793563
H-2A R/B                
1 38341U 12025E   26092.28408765  .00003403  00000+0  30920-3 0  9994
2 38341  98.4772  61.2282 0043035 234.7131 125.0059 14.95335688751743
SHIJIAN-16 (SJ-16)      
1 39358U 13057A   26092.29299892  .00001440  00000+0  14308-3 0  9990
2 39358  74.9718 140.4059 0015320  51.3769 308.8788 14.92433963675027
SL-4 R/B                
1 39679U 14021B   26092.19109853  .00023412  00000+0  49968-3 0  9997
2 39679  51.6058 222.5563 0094789 188.6670 171.2682 15.40039806659899
ALOS-2                  
1 39766U 14029A   26092.05209440  .00001861  00000+0  25604-3 0  9995
2 39766  97.9196 190.3096 0001973  99.9401 260.2034 14.79465602640320
YAOGAN-29               
1 41038U 15069A   26092.34205479  .00000066  00000+0  14776-4 0  9990
2 41038  98.0107 120.8316 0000110 342.5631  17.5579 14.83019841559383
ASTRO-H (HITOMI)        
1 41337U 16012A   26091.63669912  .00003587  00000+0  20868-3 0  9997
2 41337  30.9992 208.4476 0009659 202.6657 157.3555 15.10152335555709
